[{"OBJECT_NAME":"STARLINK-1270","OBJECT_ID":"2020-012BM","EPOCH":"2026-03-09T23:16:53.813856","MEAN_MOTION":15.47116373,"ECCENTRICITY":0.00038015,"INCLINATION":53.0511,"RA_OF_ASC_NODE":346.2195,"ARG_OF_PERICENTER":102.222,"MEAN_ANOMALY":257.9213,"EPHEMERIS_TYPE":0,"CLASSIFICATION_TYPE":"U","NORAD_CAT_ID":45237,"ELEMENT_SET_NO":999,"REV_AT_EPOCH":33571,"BSTAR":0.0019102409,"MEAN_MOTION_DOT":0.00099262,"MEAN_MOTION_DDOT":0},{"OBJECT_NAME":"OBJECT K","OBJECT_ID":"2024-199K","EPOCH":"2026-03-09T21:35:20.778720","MEAN_MOTION":15.46446082,"ECCENTRICITY":0.00073226,"INCLINATION":97.3144,"RA_OF_ASC_NODE":302.9084,"ARG_OF_PERICENTER":278.5499,"MEAN_ANOMALY":81.4921,"EPHEMERIS_TYPE":0,"CLASSIFICATION_TYPE":"U","NORAD_CAT_ID":61744,"ELEMENT_SET_NO":999,"REV_AT_EPOCH":11899,"BSTAR":0.00061875461,"MEAN_MOTION_DOT":0.00030664,"MEAN_MOTION_DDOT":0}]
